IRIDIUM 155             
1 43573U 18061E   19355.42335584  .00000067  00000-0  16843-4 0  9994
2 43573  86.3956 327.0422 0002252 105.1144 255.0301 14.34218946 73703
IRIDIUM 154             
1 43574U 18061F   19355.54387085  .00000064  00000-0  15858-4 0  9993
2 43574  86.3960 327.0133 0002012  80.0462 280.0960 14.34219990 73761
IRIDIUM 163             
1 43575U 18061G   19355.52484213  .00000072  00000-0  18787-4 0  9996
2 43575  86.3957 327.0084 0002777  79.9768 280.1741 14.34218759 73734
IRIDIUM 156             
1 43576U 18061H   19355.49947051  .00000070  00000-0  18040-4 0  9997
2 43576  86.3957 327.0235 0002559  91.8899 268.2590 14.34218434 73716
IRIDIUM 164             
1 43577U 18061J   19355.48044264  .00000071  00000-0  18323-4 0  9996
2 43577  86.3958 327.0359 0002178  80.8871 279.2571 14.34216246 73765
IRIDIUM 159             
1 43578U 18061K   19355.44873493  .00000067  00000-0  17039-4 0  9995
2 43578  86.3957 327.0356 0002092  82.9354 277.2080 14.34218102 73728
IRIDIUM 180             
1 43922U 19002A   19355.44822345  .00000068  00000-0  17128-4 0  9994
2 43922  86.3985 263.8439 0002367  51.1033 309.0373 14.34217460 49377
IRIDIUM 176             
1 43923U 19002B   19355.32896459  .00000143  00000-0  18784-4 0  9992
2 43923  86.6120 263.9126 0002442  82.6431 277.5064 14.72250602 50578
IRIDIUM 168             
1 43924U 19002C   19355.58143158  .00000083  00000-0  22519-4 0  9996
2 43924  86.3987 263.7984 0001936  74.3782 285.7628 14.34216799 49337
IRIDIUM 173             
1 43925U 19002D   19355.49897303  .00000066  00000-0  16596-4 0  9994
2 43925  86.3984 263.8181 0002007  77.8058 282.3363 14.34218916 49319
IRIDIUM 169             
1 43926U 19002E   19355.55650393  .00000062  00000-0  13854-4 0  9998
2 43926  86.4227 295.3863 0004176 198.3052 161.7996 14.38579328 49548
IRIDIUM 172             
1 43927U 19002F   19355.49263449  .00000096  00000-0  27044-4 0  9997
2 43927  86.3984 263.8212 0002026  72.9826 287.1592 14.34214723 49315
IRIDIUM 175             
1 43928U 19002G   19355.45873487  .00000129  00000-0  16599-4 0  9993
2 43928  86.6104 263.7857 0002555 107.7358 252.4138 14.72249838 50580
IRIDIUM 171             
1 43929U 19002H   19355.47360345  .00000073  00000-0  19087-4 0  9993
2 43929  86.3993 263.8721 0001902  75.5553 284.5854 14.34217648 49300
IRIDIUM 170             
1 43930U 19002J   19355.47112304  .00000139  00000-0  18165-4 0  9994
2 43930  86.6120 263.8606 0002647  89.3487 270.8033 14.72254935 50609
IRIDIUM 167             
1 43931U 19002K   19355.46725984  .00000068  00000-0  17280-4 0  9996
2 43931  86.3985 263.8334 0002143  54.3101 305.8294 14.34218526 49307
